[{"CCSDS_OMM_VERS":"3.0","COMMENT":"GENERATED VIA SPACE-TRACK.ORG API","CREATION_DATE":"2026-05-16T10:38:26","ORIGINATOR":"18 SPCS","OBJECT_NAME":"NAVSTAR 83 (USA 440)","OBJECT_ID":"2024-242A","CENTER_NAME":"EARTH","REF_FRAME":"TEME","TIME_SYSTEM":"UTC","MEAN_ELEMENT_THEORY":"SGP4","EPOCH":"2026-05-16T04:14:44.028672","MEAN_MOTION":"2.00570749","ECCENTRICITY":"0.00171439","INCLINATION":"54.8632","RA_OF_ASC_NODE":"335.4791","ARG_OF_PERICENTER":"3.2214","MEAN_ANOMALY":"171.9079","EPHEMERIS_TYPE":"0","CLASSIFICATION_TYPE":"U","NORAD_CAT_ID":"62339","ELEMENT_SET_NO":"999","REV_AT_EPOCH":"1061","BSTAR":"0.00000000000000","MEAN_MOTION_DOT":"-0.00000064","MEAN_MOTION_DDOT":"0.0000000000000","SEMIMAJOR_AXIS":"26559.717","PERIOD":"717.951","APOAPSIS":"20227.116","PERIAPSIS":"20136.048","OBJECT_TYPE":"PAYLOAD","RCS_SIZE":"LARGE","COUNTRY_CODE":"US","LAUNCH_DATE":"2024-12-17","SITE":"AFETR","DECAY_DATE":null,"FILE":"5196540","GP_ID":"323450697","TLE_LINE0":"0 NAVSTAR 83 (USA 440)","TLE_LINE1":"1 62339U 24242A   26136.17689848 -.00000064  00000-0  00000-0 0  9997","TLE_LINE2":"2 62339  54.8632 335.4791 0017144   3.2214 171.9079  2.00570749 10610"},{"CCSDS_OMM_VERS":"3.0","COMMENT":"GENERATED VIA SPACE-TRACK.ORG API","CREATION_DATE":"2026-05-16T23:56:34","ORIGINATOR":"18 SPCS","OBJECT_NAME":"NAVSTAR 83 (USA 440)","OBJECT_ID":"2024-242A","CENTER_NAME":"EARTH","REF_FRAME":"TEME","TIME_SYSTEM":"UTC","MEAN_ELEMENT_THEORY":"SGP4","EPOCH":"2026-05-16T10:03:06.257088","MEAN_MOTION":"2.00570725","ECCENTRICITY":"0.00171360","INCLINATION":"54.8633","RA_OF_ASC_NODE":"335.4693","ARG_OF_PERICENTER":"3.3978","MEAN_ANOMALY":"346.4178","EPHEMERIS_TYPE":"0","CLASSIFICATION_TYPE":"U","NORAD_CAT_ID":"62339","ELEMENT_SET_NO":"999","REV_AT_EPOCH":"1061","BSTAR":"0.00000000000000","MEAN_MOTION_DOT":"-0.00000065","MEAN_MOTION_DDOT":"0.0000000000000","SEMIMAJOR_AXIS":"26559.719","PERIOD":"717.951","APOAPSIS":"20227.097","PERIAPSIS":"20136.071","OBJECT_TYPE":"PAYLOAD","RCS_SIZE":"LARGE","COUNTRY_CODE":"US","LAUNCH_DATE":"2024-12-17","SITE":"AFETR","DECAY_DATE":null,"FILE":"5197900","GP_ID":"323523530","TLE_LINE0":"0 NAVSTAR 83 (USA 440)","TLE_LINE1":"1 62339U 24242A   26136.41882242 -.00000065  00000-0  00000+0 0  9997","TLE_LINE2":"2 62339  54.8633 335.4693 0017136   3.3978 346.4178  2.00570725 10614"},{"CCSDS_OMM_VERS":"3.0","COMMENT":"GENERATED VIA SPACE-TRACK.ORG API","CREATION_DATE":"2026-05-17T03:32:26","ORIGINATOR":"18 SPCS","OBJECT_NAME":"NAVSTAR 83 (USA 440)","OBJECT_ID":"2024-242A","CENTER_NAME":"EARTH","REF_FRAME":"TEME","TIME_SYSTEM":"UTC","MEAN_ELEMENT_THEORY":"SGP4","EPOCH":"2026-05-16T10:03:06.257952","MEAN_MOTION":"2.00570725","ECCENTRICITY":"0.00171357","INCLINATION":"54.8633","RA_OF_ASC_NODE":"335.4693","ARG_OF_PERICENTER":"3.3978","MEAN_ANOMALY":"346.4178","EPHEMERIS_TYPE":"0","CLASSIFICATION_TYPE":"U","NORAD_CAT_ID":"62339","ELEMENT_SET_NO":"999","REV_AT_EPOCH":"1061","BSTAR":"0.00000000000000","MEAN_MOTION_DOT":"-0.00000065","MEAN_MOTION_DDOT":"0.0000000000000","SEMIMAJOR_AXIS":"26559.719","PERIOD":"717.951","APOAPSIS":"20227.096","PERIAPSIS":"20136.072","OBJECT_TYPE":"PAYLOAD","RCS_SIZE":"LARGE","COUNTRY_CODE":"US","LAUNCH_DATE":"2024-12-17","SITE":"AFETR","DECAY_DATE":null,"FILE":"5197925","GP_ID":"323550519","TLE_LINE0":"0 NAVSTAR 83 (USA 440)","TLE_LINE1":"1 62339U 24242A   26136.41882243 -.00000065  00000-0  00000-0 0  9999","TLE_LINE2":"2 62339  54.8633 335.4693 0017136   3.3978 346.4178  2.00570725 10614"},{"CCSDS_OMM_VERS":"3.0","COMMENT":"GENERATED VIA SPACE-TRACK.ORG API","CREATION_DATE":"2026-05-18T15:16:53","ORIGINATOR":"18 SPCS","OBJECT_NAME":"NAVSTAR 83 (USA 440)","OBJECT_ID":"2024-242A","CENTER_NAME":"EARTH","REF_FRAME":"TEME","TIME_SYSTEM":"UTC","MEAN_ELEMENT_THEORY":"SGP4","EPOCH":"2026-05-18T04:20:52.342368","MEAN_MOTION":"2.00570733","ECCENTRICITY":"0.00171840","INCLINATION":"54.8626","RA_OF_ASC_NODE":"335.3975","ARG_OF_PERICENTER":"3.5056","MEAN_ANOMALY":"178.8516","EPHEMERIS_TYPE":"0","CLASSIFICATION_TYPE":"U","NORAD_CAT_ID":"62339","ELEMENT_SET_NO":"999","REV_AT_EPOCH":"1065","BSTAR":"0.00000000000000","MEAN_MOTION_DOT":"-0.00000073","MEAN_MOTION_DDOT":"0.0000000000000","SEMIMAJOR_AXIS":"26559.718","PERIOD":"717.951","APOAPSIS":"20227.224","PERIAPSIS":"20135.943","OBJECT_TYPE":"PAYLOAD","RCS_SIZE":"LARGE","COUNTRY_CODE":"US","LAUNCH_DATE":"2024-12-17","SITE":"AFETR","DECAY_DATE":null,"FILE":"5202274","GP_ID":"323727453","TLE_LINE0":"0 NAVSTAR 83 (USA 440)","TLE_LINE1":"1 62339U 24242A   26138.18116137 -.00000073  00000-0  00000+0 0  9995","TLE_LINE2":"2 62339  54.8626 335.3975 0017184   3.5056 178.8516  2.00570733 10656"},{"CCSDS_OMM_VERS":"3.0","COMMENT":"GENERATED VIA SPACE-TRACK.ORG API","CREATION_DATE":"2026-05-18T23:46:21","ORIGINATOR":"18 SPCS","OBJECT_NAME":"NAVSTAR 83 (USA 440)","OBJECT_ID":"2024-242A","CENTER_NAME":"EARTH","REF_FRAME":"TEME","TIME_SYSTEM":"UTC","MEAN_ELEMENT_THEORY":"SGP4","EPOCH":"2026-05-18T16:13:40.243872","MEAN_MOTION":"2.00570743","ECCENTRICITY":"0.00172230","INCLINATION":"54.8623","RA_OF_ASC_NODE":"335.3773","ARG_OF_PERICENTER":"3.5093","MEAN_ANOMALY":"176.2743","EPHEMERIS_TYPE":"0","CLASSIFICATION_TYPE":"U","NORAD_CAT_ID":"62339","ELEMENT_SET_NO":"999","REV_AT_EPOCH":"1066","BSTAR":"0.00000000000000","MEAN_MOTION_DOT":"-0.00000075","MEAN_MOTION_DDOT":"0.0000000000000","SEMIMAJOR_AXIS":"26559.718","PERIOD":"717.951","APOAPSIS":"20227.326","PERIAPSIS":"20135.839","OBJECT_TYPE":"PAYLOAD","RCS_SIZE":"LARGE","COUNTRY_CODE":"US","LAUNCH_DATE":"2024-12-17","SITE":"AFETR","DECAY_DATE":null,"FILE":"5202979","GP_ID":"323743202","TLE_LINE0":"0 NAVSTAR 83 (USA 440)","TLE_LINE1":"1 62339U 24242A   26138.67616023 -.00000075  00000-0  00000+0 0  9990","TLE_LINE2":"2 62339  54.8623 335.3773 0017223   3.5093 176.2743  2.00570743 10660"},{"CCSDS_OMM_VERS":"3.0","COMMENT":"GENERATED VIA SPACE-TRACK.ORG API","CREATION_DATE":"2026-05-19T02:42:52","ORIGINATOR":"18 SPCS","OBJECT_NAME":"NAVSTAR 83 (USA 440)","OBJECT_ID":"2024-242A","CENTER_NAME":"EARTH","REF_FRAME":"TEME","TIME_SYSTEM":"UTC","MEAN_ELEMENT_THEORY":"SGP4","EPOCH":"2026-05-18T16:13:40.244736","MEAN_MOTION":"2.00570743","ECCENTRICITY":"0.00172226","INCLINATION":"54.8623","RA_OF_ASC_NODE":"335.3773","ARG_OF_PERICENTER":"3.5093","MEAN_ANOMALY":"176.2743","EPHEMERIS_TYPE":"0","CLASSIFICATION_TYPE":"U","NORAD_CAT_ID":"62339","ELEMENT_SET_NO":"999","REV_AT_EPOCH":"1066","BSTAR":"0.00000000000000","MEAN_MOTION_DOT":"-0.00000075","MEAN_MOTION_DDOT":"0.0000000000000","SEMIMAJOR_AXIS":"26559.718","PERIOD":"717.951","APOAPSIS":"20227.325","PERIAPSIS":"20135.840","OBJECT_TYPE":"PAYLOAD","RCS_SIZE":"LARGE","COUNTRY_CODE":"US","LAUNCH_DATE":"2024-12-17","SITE":"AFETR","DECAY_DATE":null,"FILE":"5203002","GP_ID":"323772271","TLE_LINE0":"0 NAVSTAR 83 (USA 440)","TLE_LINE1":"1 62339U 24242A   26138.67616024 -.00000075  00000-0  00000-0 0  9992","TLE_LINE2":"2 62339  54.8623 335.3773 0017223   3.5093 176.2743  2.00570743 10660"},{"CCSDS_OMM_VERS":"3.0","COMMENT":"GENERATED VIA SPACE-TRACK.ORG API","CREATION_DATE":"2026-05-19T15:16:35","ORIGINATOR":"18 SPCS","OBJECT_NAME":"NAVSTAR 83 (USA 440)","OBJECT_ID":"2024-242A","CENTER_NAME":"EARTH","REF_FRAME":"TEME","TIME_SYSTEM":"UTC","MEAN_ELEMENT_THEORY":"SGP4","EPOCH":"2026-05-19T04:02:38.755968","MEAN_MOTION":"2.00570758","ECCENTRICITY":"0.00172020","INCLINATION":"54.8621","RA_OF_ASC_NODE":"335.3572","ARG_OF_PERICENTER":"3.5576","MEAN_ANOMALY":"171.7354","EPHEMERIS_TYPE":"0","CLASSIFICATION_TYPE":"U","NORAD_CAT_ID":"62339","ELEMENT_SET_NO":"999","REV_AT_EPOCH":"1067","BSTAR":"0.00000000000000","MEAN_MOTION_DOT":"-0.00000077","MEAN_MOTION_DDOT":"0.0000000000000","SEMIMAJOR_AXIS":"26559.716","PERIOD":"717.951","APOAPSIS":"20227.269","PERIAPSIS":"20135.893","OBJECT_TYPE":"PAYLOAD","RCS_SIZE":"LARGE","COUNTRY_CODE":"US","LAUNCH_DATE":"2024-12-17","SITE":"AFETR","DECAY_DATE":null,"FILE":"5204540","GP_ID":"323847980","TLE_LINE0":"0 NAVSTAR 83 (USA 440)","TLE_LINE1":"1 62339U 24242A   26139.16850412 -.00000077  00000-0  00000+0 0  9999","TLE_LINE2":"2 62339  54.8621 335.3572 0017202   3.5576 171.7354  2.00570758 10673"},{"CCSDS_OMM_VERS":"3.0","COMMENT":"GENERATED VIA SPACE-TRACK.ORG API","CREATION_DATE":"2026-05-20T02:32:39","ORIGINATOR":"18 SPCS","OBJECT_NAME":"NAVSTAR 83 (USA 440)","OBJECT_ID":"2024-242A","CENTER_NAME":"EARTH","REF_FRAME":"TEME","TIME_SYSTEM":"UTC","MEAN_ELEMENT_THEORY":"SGP4","EPOCH":"2026-05-19T16:11:02.790240","MEAN_MOTION":"2.00570769","ECCENTRICITY":"0.00172774","INCLINATION":"54.8610","RA_OF_ASC_NODE":"335.3368","ARG_OF_PERICENTER":"3.4958","MEAN_ANOMALY":"177.0470","EPHEMERIS_TYPE":"0","CLASSIFICATION_TYPE":"U","NORAD_CAT_ID":"62339","ELEMENT_SET_NO":"999","REV_AT_EPOCH":"1068","BSTAR":"0.00000000000000","MEAN_MOTION_DOT":"-0.00000078","MEAN_MOTION_DDOT":"0.0000000000000","SEMIMAJOR_AXIS":"26559.715","PERIOD":"717.951","APOAPSIS":"20227.469","PERIAPSIS":"20135.692","OBJECT_TYPE":"PAYLOAD","RCS_SIZE":"LARGE","COUNTRY_CODE":"US","LAUNCH_DATE":"2024-12-17","SITE":"AFETR","DECAY_DATE":null,"FILE":"5205549","GP_ID":"323898272","TLE_LINE0":"0 NAVSTAR 83 (USA 440)","TLE_LINE1":"1 62339U 24242A   26139.67433785 -.00000078  00000-0  00000-0 0  9997","TLE_LINE2":"2 62339  54.8610 335.3368 0017277   3.4958 177.0470  2.00570769 10680"}]